     2.01           GLONASS NAV DATA                        RINEX VERSION / TYPE
CCRINEXG V1.4 UX    CDDIS               07-DEC-24 01:09     PGM / RUN BY / DATE 
IGS BROADCAST EPHEMERIS FILE                                COMMENT             
teqc  2019Feb25     GPS Operator        20241207  1:02:     COMMENT             
  2024    12     7    0.512227416039D-08                    CORR TO SYSTEM TIME 
     1                                                      LEAP SECONDS        
                                                            END OF HEADER       
 1 24 12  7  0 15  0.0 0.106872059405D-03 0.909494701773D-12 0.000000000000D+00
   -0.165330317383D+05-0.251164150238D+01 0.931322574616D-09 0.000000000000D+00
    0.595253027344D+04-0.338938713074D+00 0.000000000000D+00 0.100000000000D+01
    0.184914965820D+05-0.213580799103D+01-0.186264514923D-08 0.000000000000D+00
 2 24 12  7  0 15  0.0-0.392580404878D-04 0.000000000000D+00 0.000000000000D+00
    0.914741210938D+03-0.305902671814D+01 0.186264514923D-08 0.000000000000D+00
    0.111065585938D+05-0.697678565979D+00 0.186264514923D-08-0.400000000000D+01
    0.229931840820D+05 0.452660560608D+00-0.931322574616D-09 0.000000000000D+00
 3 24 12  7  0 15  0.0 0.112758949399D-03 0.909494701773D-12 0.930000000000D+03
    0.183206396484D+05-0.187801361084D+01 0.186264514923D-08 0.000000000000D+00
    0.106208789062D+05-0.546140670776D+00 0.279396772385D-08 0.500000000000D+01
    0.143163627930D+05 0.281091499329D+01 0.000000000000D+00 0.000000000000D+00
 4 24 12  7  0 15  0.0 0.267295166850D-03 0.181898940355D-11 0.000000000000D+00
    0.250301762695D+05 0.290720939636D+00 0.000000000000D+00 0.000000000000D+00
    0.462721240234D+04-0.149517059326D+00 0.186264514923D-08 0.600000000000D+01
   -0.181217480469D+04 0.357829952240D+01 0.186264514923D-08 0.000000000000D+00
 8 24 12  7  0 15  0.0-0.613462179899D-05-0.000000000000D+00 0.000000000000D+00
   -0.250478105469D+05-0.327069282532D+00-0.000000000000D+00 0.000000000000D+00
   -0.417814746094D+04 0.121251106262D+00-0.186264514923D-08 0.600000000000D+01
    0.221400439453D+04-0.356944084168D+01-0.186264514923D-08 0.000000000000D+00
 9 24 12  7  0 15  0.0 0.224760733545D-03 0.181898940355D-11 0.000000000000D+00
    0.841047021484D+04 0.107278823853D+01-0.000000000000D+00 0.000000000000D+00
   -0.202425434570D+05-0.141962146759D+01-0.000000000000D+00-0.200000000000D+01
    0.129886855469D+05-0.291800785065D+01-0.186264514923D-08 0.000000000000D+00
10 24 12  7  0 15  0.0-0.253972597420D-03-0.454747350886D-11 0.000000000000D+00
   -0.318978173828D+04 0.193398952484D+01 0.000000000000D+00 0.000000000000D+00
   -0.125019589844D+05-0.231228351593D+01 0.000000000000D+00-0.700000000000D+01
    0.220045488281D+05-0.102505302429D+01-0.279396772385D-08 0.000000000000D+00
11 24 12  7  0 15  0.0 0.532343983650D-05-0.909494701773D-12 0.000000000000D+00
   -0.152622441406D+05 0.187984180450D+01 0.931322574616D-09 0.000000000000D+00
    0.287528076172D+04-0.203625965118D+01 0.000000000000D+00 0.000000000000D+00
    0.202464638672D+05 0.170511341095D+01-0.279396772385D-08 0.000000000000D+00
12 24 12  7  0 15  0.0 0.480916351080D-04 0.000000000000D+00 0.177000000000D+04
   -0.181514291992D+05 0.514493942261D+00 0.931322574616D-09 0.000000000000D+00
    0.173442651367D+05-0.362916946411D+00 0.000000000000D+00-0.100000000000D+01
    0.449088574219D+04 0.349639606476D+01-0.000000000000D+00 0.000000000000D+00
16 24 12  7  0 15  0.0 0.314153730869D-04 0.000000000000D+00 0.108000000000D+04
    0.180965673828D+05-0.545117378235D+00-0.931322574616D-09 0.000000000000D+00
   -0.173406025391D+05 0.369215965271D+00 0.000000000000D+00-0.100000000000D+01
   -0.464256103516D+04-0.350428104401D+01 0.000000000000D+00 0.000000000000D+00
17 24 12  7  0 15  0.0 0.146292150021D-03 0.272848410532D-11 0.000000000000D+00
    0.110254399414D+05 0.541213989258D+00 0.186264514923D-08 0.000000000000D+00
    0.213592578125D+05 0.104638481140D+01 0.279396772385D-08 0.400000000000D+01
    0.849064648438D+04-0.334505939484D+01 0.931322574616D-09 0.000000000000D+00
18 24 12  7  0 15  0.0 0.175500288606D-03 0.181898940355D-11 0.000000000000D+00
    0.124229169922D+05 0.938294410706D+00 0.186264514923D-08 0.000000000000D+00
    0.836784033203D+04 0.267002391815D+01 0.279396772385D-08-0.300000000000D+01
    0.206846064453D+05-0.164122200012D+01-0.000000000000D+00 0.000000000000D+00
19 24 12  7  0 15  0.0-0.301007181406D-03-0.909494701773D-12 0.000000000000D+00
    0.874007666016D+04 0.793721199036D+00 0.931322574616D-09 0.000000000000D+00
   -0.698631396484D+04 0.304076004028D+01 0.186264514923D-08 0.300000000000D+01
    0.229315473633D+05 0.623476982117D+00-0.931322574616D-09 0.000000000000D+00
20 24 12  7  0 15  0.0-0.122888945043D-03-0.000000000000D+00 0.000000000000D+00
   -0.167037841797D+04 0.156086921692D+00-0.931322574616D-09 0.000000000000D+00
   -0.233368515625D+05 0.139654636383D+01-0.931322574616D-09 0.200000000000D+01
    0.101343149414D+05 0.325020027161D+01-0.279396772385D-08 0.000000000000D+00
21 24 12  7  0 15  0.0-0.157399103045D-03-0.272848410532D-11 0.123000000000D+04
   -0.104619194336D+05-0.507140159607D+00-0.186264514923D-08 0.000000000000D+00
   -0.220658549805D+05-0.906366348267D+00-0.279396772385D-08 0.400000000000D+01
   -0.741194970703D+04 0.340753936768D+01-0.186264514923D-08 0.000000000000D+00
26 24 12  7  0 15  0.0-0.133007764816D-03 0.000000000000D+00 0.000000000000D+00
   -0.250344179688D+05-0.740728378296D-01-0.000000000000D+00 0.400000000000D+01
   -0.492840820312D+04 0.180397987366D+00-0.186264514923D-08-0.600000000000D+01
    0.288367675781D+03-0.358177089691D+01-0.186264514923D-08 0.000000000000D+00
 1 24 12  7  0 45  0.0 0.106873922050D-03 0.909494701773D-12 0.180000000000D+04
   -0.205563818359D+05-0.191891098022D+01 0.931322574616D-09 0.000000000000D+00
    0.571785742188D+04 0.534925460815D-01-0.000000000000D+00 0.100000000000D+01
    0.139819663086D+05-0.284225177765D+01-0.186264514923D-08 0.000000000000D+00
 2 24 12  7  0 45  0.0-0.392571091652D-04 0.000000000000D+00 0.180000000000D+04
   -0.469241210938D+04-0.311948776245D+01 0.186264514923D-08 0.000000000000D+00
    0.102606303711D+05-0.234963417053D+00 0.931322574616D-09-0.400000000000D+01
    0.229129306641D+05-0.541475296021D+00-0.186264514923D-08 0.000000000000D+00
 3 24 12  7  0 45  0.0 0.112760812044D-03 0.909494701773D-12 0.324000000000D+04
    0.143131557617D+05-0.254165649414D+01 0.279396772385D-08 0.000000000000D+00
    0.982760791016D+04-0.301710128784D+00 0.186264514923D-08 0.500000000000D+01
    0.187610981445D+05 0.209583377838D+01-0.000000000000D+00 0.000000000000D+00
 4 24 12  7  0 45  0.0 0.267297960818D-03 0.181898940355D-11 0.324000000000D+04
    0.247466708984D+05-0.608728408813D+00 0.931322574616D-09 0.000000000000D+00
    0.422342919922D+04-0.257361412048D+00 0.186264514923D-08 0.600000000000D+01
    0.461563720703D+04 0.351741218567D+01 0.931322574616D-09 0.000000000000D+00
 5 24 12  7  0 45  0.0 0.141809694469D-03 0.909494701773D-12 0.315000000000D+04
    0.222086396484D+05 0.165931701660D+01-0.000000000000D+00 0.000000000000D+00
   -0.361654492188D+04-0.352401733398D-01 0.931322574616D-09 0.100000000000D+01
   -0.120365747070D+05 0.306696891785D+01 0.186264514923D-08 0.000000000000D+00
 8 24 12  7  0 45  0.0-0.613555312157D-05-0.000000000000D+00 0.180000000000D+04
   -0.248314282227D+05 0.571155548096D+00-0.931322574616D-09 0.000000000000D+00
   -0.382886083984D+04 0.225497245789D+00-0.279396772385D-08 0.600000000000D+01
   -0.421355664062D+04-0.352575969696D+01-0.931322574616D-09 0.000000000000D+00
 9 24 12  7  0 45  0.0 0.224764458835D-03 0.181898940355D-11 0.180000000000D+04
    0.977009667969D+04 0.453193664551D+00-0.931322574616D-09 0.000000000000D+00
   -0.223607885742D+05-0.894645690918D+00-0.000000000000D+00-0.200000000000D+01
    0.730035888672D+04-0.336123275757D+01-0.931322574616D-09 0.000000000000D+00
10 24 12  7  0 45  0.0-0.253981910646D-03-0.454747350886D-11 0.180000000000D+04
   -0.192509277344D+03 0.138180541992D+01 0.000000000000D+00 0.000000000000D+00
   -0.166588569336D+05-0.225906658173D+01 0.000000000000D+00-0.700000000000D+01
    0.193331762695D+05-0.192366981506D+01-0.279396772385D-08 0.000000000000D+00
11 24 12  7  0 45  0.0 0.532250851393D-05-0.909494701773D-12 0.180000000000D+04
   -0.119753432617D+05 0.173150253296D+01 0.931322574616D-09 0.000000000000D+00
   -0.127475732422D+04-0.254509067535D+01 0.000000000000D+00 0.000000000000D+00
    0.224942382812D+05 0.776191711426D+00-0.279396772385D-08 0.000000000000D+00
12 24 12  7  0 45  0.0 0.480925664306D-04 0.909494701773D-12 0.306000000000D+04
   -0.168309536133D+05 0.911923408508D+00 0.931322574616D-09 0.000000000000D+00
    0.160177089844D+05-0.112093925476D+01 0.000000000000D+00-0.100000000000D+01
    0.105293754883D+05 0.316949081421D+01-0.931322574616D-09 0.000000000000D+00
16 24 12  7  0 45  0.0 0.314153730869D-04 0.000000000000D+00 0.198000000000D+04
    0.167240898438D+05-0.938451766968D+00-0.186264514923D-08 0.000000000000D+00
   -0.159947592773D+05 0.113582324982D+01 0.000000000000D+00-0.100000000000D+01
   -0.106887036133D+05-0.316994476318D+01 0.931322574616D-09 0.000000000000D+00
17 24 12  7  0 45  0.0 0.146298669279D-03 0.272848410532D-11 0.180000000000D+04
    0.118345454102D+05 0.315340042114D+00 0.186264514923D-08 0.000000000000D+00
    0.224637460938D+05 0.184403419495D+00 0.186264514923D-08 0.400000000000D+01
    0.221855273438D+04-0.357860088348D+01 0.186264514923D-08 0.000000000000D+00
18 24 12  7  0 45  0.0 0.175504945219D-03 0.181898940355D-11 0.180000000000D+04
    0.143043994141D+05 0.111411380768D+01 0.279396772385D-08 0.000000000000D+00
    0.126359619141D+05 0.204075431824D+01 0.186264514923D-08-0.300000000000D+01
    0.169717749023D+05-0.245743656158D+01 0.000000000000D+00 0.000000000000D+00
19 24 12  7  0 45  0.0-0.301009044051D-03-0.909494701773D-12 0.180000000000D+04
    0.106021318359D+05 0.125914192200D+01 0.186264514923D-08 0.000000000000D+00
   -0.158266650391D+04 0.291253566742D+01 0.186264514923D-08 0.300000000000D+01
    0.231537753906D+05-0.378175735474D+00-0.931322574616D-09 0.000000000000D+00
20 24 12  7  0 45  0.0-0.122889876366D-03-0.000000000000D+00 0.180000000000D+04
   -0.959204101562D+03 0.657891273498D+00-0.000000000000D+00 0.000000000000D+00
   -0.202173544922D+05 0.202984237671D+01-0.000000000000D+00 0.200000000000D+01
    0.155167929688D+05 0.269153881073D+01-0.279396772385D-08 0.000000000000D+00
21 24 12  7  0 45  0.0-0.157403759658D-03-0.272848410532D-11 0.180000000000D+04
   -0.111952836914D+05-0.265575408936D+00-0.186264514923D-08 0.000000000000D+00
   -0.229119267578D+05-0.396175384521D-01-0.279396772385D-08 0.400000000000D+01
   -0.107137304688D+04 0.359185504913D+01-0.186264514923D-08 0.000000000000D+00
26 24 12  7  0 45  0.0-0.133007764816D-03 0.000000000000D+00 0.180000000000D+04
   -0.243604951172D+05 0.821858406067D+00-0.931322574616D-09 0.400000000000D+01
   -0.451153173828D+04 0.241150856018D+00-0.279396772385D-08-0.600000000000D+01
   -0.608671142578D+04-0.345566558838D+01-0.931322574616D-09 0.000000000000D+00
